{"type": "FeatureCollection", "features": [ {"type": "Feature", "properties": {"norad_id": 30224, "name": "FENGYUN 1C DEB", "group": "fengyun-1c-debris", "lat": -57.54684672317674, "lon": 51.12490266639149, "alt_km": 857.5257422477125, "timestamp": "2025-12-22T22:44:21.250283+00:00", "meta": {"OBJECT_NAME": "FENGYUN 1C DEB", "OBJECT_ID": "1999-025WH", "EPOCH": "2025-12-22T02:25:48.586656", "MEAN_MOTION": 13.89875055, "ECCENTRICITY": 0.01109923, "INCLINATION": 99.4828, "RA_OF_ASC_NODE": 35.025, "ARG_OF_PERICENTER": 318.0942, "MEAN_ANOMALY": 71.6718, "EPHEMERIS_TYPE": 0, "CLASSIFICATION_TYPE": "U", "NORAD_CAT_ID": 30224, "ELEMENT_SET_NO": 999, "REV_AT_EPOCH": 95871, "BSTAR": 0.0003576865, "MEAN_MOTION_DOT": 4.15e-06, "MEAN_MOTION_DDOT": 0}, "tle": {"line1": "1 30224U 99025WH  25356.10125679  .00000415  00000+0  35769-3 0  9990", "line2": "2 30224  99.4828  35.0250 0110992 318.0942  71.6718 13.89875055958718"}}, "geometry": {"type": "Point", "coordinates": [51.12490266639149, -57.54684672317674]}}, {"type": "Feature", "properties": {"norad_id": 30225, "name": "FENGYUN 1C DEB", "group": "fengyun-1c-debris", "lat": -41.37069527419524, "lon": 31.134228286374647, "alt_km": 858.6178804510755, "timestamp": "2025-12-22T22:44:21.250293+00:00", "meta": {"OBJECT_NAME": "FENGYUN 1C DEB", "OBJECT_ID": "1999-025WJ", "EPOCH": "2025-12-22T07:57:56.155680", "MEAN_MOTION": 14.15190751, "ECCENTRICITY": 0.01002928, "INCLINATION": 98.6588, "RA_OF_ASC_NODE": 22.824, "ARG_OF_PERICENTER": 58.747, "MEAN_ANOMALY": 6.1617, "EPHEMERIS_TYPE": 0, "CLASSIFICATION_TYPE": "U", "NORAD_CAT_ID": 30225, "ELEMENT_SET_NO": 999, "REV_AT_EPOCH": 97672, "BSTAR": 0.00016270913, "MEAN_MOTION_DOT": 2.9e-06, "MEAN_MOTION_DDOT": 0}, "tle": {"line1": "1 30225U 99025WJ  25356.33189995  .00000290  00000+0  16271-3 0  9995", "line2": "2 30225  98.6588  22.8240 0100292  58.7470   6.1617 14.15190751976727"}}, "geometry": {"type": "Point", "coordinates": [31.134228286374647, -41.37069527419524]}}, {"type": "Feature", "properties": {"norad_id": 30229, "name": "FENGYUN 1C DEB", "group": "fengyun-1c-debris", "lat": 64.37830219781179, "lon": 38.094229257888855, "alt_km": 670.2623784050784, "timestamp": "2025-12-22T22:44:21.250303+00:00", "meta": {"OBJECT_NAME": "FENGYUN 1C DEB", "OBJECT_ID": "1999-025WN", "EPOCH": "2025-12-22T03:01:28.991136", "MEAN_MOTION": 14.6068949, "ECCENTRICITY": 0.00369646, "INCLINATION": 99.0616, "RA_OF_ASC_NODE": 56.6333, "ARG_OF_PERICENTER": 11.542, "MEAN_ANOMALY": 57.0439, "EPHEMERIS_TYPE": 0, "CLASSIFICATION_TYPE": "U", "NORAD_CAT_ID": 30229, "ELEMENT_SET_NO": 999, "REV_AT_EPOCH": 99063, "BSTAR": 0.0017650825, "MEAN_MOTION_DOT": 8.634e-05, "MEAN_MOTION_DDOT": 0}, "tle": {"line1": "1 30229U 99025WN  25356.12602999  .00008634  00000+0  17651-2 0  9992", "line2": "2 30229  99.0616  56.6333 0036964  11.5420  57.0439 14.60689490990638"}}, "geometry": {"type": "Point", "coordinates": [38.094229257888855, 64.37830219781179]}}, {"type": "Feature", "properties": {"norad_id": 30231, "name": "FENGYUN 1C DEB", "group": "fengyun-1c-debris", "lat": -65.89164594319588, "lon": 61.77914714484658, "alt_km": 824.7601470578029, "timestamp": "2025-12-22T22:44:21.250313+00:00", "meta": {"OBJECT_NAME": "FENGYUN 1C DEB", "OBJECT_ID": "1999-025WQ", "EPOCH": "2025-12-22T02:45:33.898752", "MEAN_MOTION": 14.11664051, "ECCENTRICITY": 0.01279649, "INCLINATION": 98.8038, "RA_OF_ASC_NODE": 40.7002, "ARG_OF_PERICENTER": 2.6485, "MEAN_ANOMALY": 22.9219, "EPHEMERIS_TYPE": 0, "CLASSIFICATION_TYPE": "U", "NORAD_CAT_ID": 30231, "ELEMENT_SET_NO": 999, "REV_AT_EPOCH": 97152, "BSTAR": 0.00049689454, "MEAN_MOTION_DOT": 9.33e-06, "MEAN_MOTION_DDOT": 0}, "tle": {"line1": "1 30231U 99025WQ  25356.11497568  .00000933  00000+0  49689-3 0  9999", "line2": "2 30231  98.8038  40.7002 0127964   2.6485  22.9219 14.11664051971522"}}, "geometry": {"type": "Point", "coordinates": [61.77914714484658, -65.89164594319588]}}, {"type": "Feature", "properties": {"norad_id": 30232, "name": "FENGYUN 1C DEB", "group": "fengyun-1c-debris", "lat": -17.284293246466635, "lon": -159.60399357605607, "alt_km": 599.0381066711989, "timestamp": "2025-12-22T22:44:21.250324+00:00", "meta": {"OBJECT_NAME": "FENGYUN 1C DEB", "OBJECT_ID": "1999-025WR", "EPOCH": "2025-12-22T13:13:19.558848", "MEAN_MOTION": 14.63665957, "ECCENTRICITY": 0.013536, "INCLINATION": 98.6923, "RA_OF_ASC_NODE": 197.2494, "ARG_OF_PERICENTER": 319.4238, "MEAN_ANOMALY": 94.3057, "EPHEMERIS_TYPE": 0, "CLASSIFICATION_TYPE": "U", "NORAD_CAT_ID": 30232, "ELEMENT_SET_NO": 999, "REV_AT_EPOCH": 99895, "BSTAR": 0.0007802572, "MEAN_MOTION_DOT": 4.576e-05, "MEAN_MOTION_DDOT": 0}, "tle": {"line1": "1 30232U 99025WR  25356.55092082  .00004576  00000+0  78026-3 0  9994", "line2": "2 30232  98.6923 197.2494 0135360 319.4238  94.3057 14.63665957998953"}}, "geometry": {"type": "Point", "coordinates": [-159.60399357605607, -17.284293246466635]}}, {"type": "Feature", "properties": {"norad_id": 30234, "name": "FENGYUN 1C DEB", "group": "fengyun-1c-debris", "lat": -32.326201947723064, "lon": 12.94256075072985, "alt_km": 832.3440443687823, "timestamp": "2025-12-22T22:44:21.250334+00:00", "meta": {"OBJECT_NAME": "FENGYUN 1C DEB", "OBJECT_ID": "1999-025WT", "EPOCH": "2025-12-22T11:47:40.238880", "MEAN_MOTION": 14.16877409, "ECCENTRICITY": 0.00667561, "INCLINATION": 98.6335, "RA_OF_ASC_NODE": 6.9828, "ARG_OF_PERICENTER": 47.5132, "MEAN_ANOMALY": 115.807, "EPHEMERIS_TYPE": 0, "CLASSIFICATION_TYPE": "U", "NORAD_CAT_ID": 30234, "ELEMENT_SET_NO": 999, "REV_AT_EPOCH": 97594, "BSTAR": 0.00030557097, "MEAN_MOTION_DOT": 5.84e-06, "MEAN_MOTION_DDOT": 0}, "tle": {"line1": "1 30234U 99025WT  25356.49143795  .00000584  00000+0  30557-3 0  9999", "line2": "2 30234  98.6335   6.9828 0066756  47.5132 115.8070 14.16877409975946"}}, "geometry": {"type": "Point", "coordinates": [12.94256075072985, -32.326201947723064]}}, {"type": "Feature", "properties": {"norad_id": 30235, "name": "FENGYUN 1C DEB", "group": "fengyun-1c-debris", "lat": -6.590028169772026, "lon": 15.837724479967738, "alt_km": 956.5386990096131, "timestamp": "2025-12-22T22:44:21.250344+00:00", "meta": {"OBJECT_NAME": "FENGYUN 1C DEB", "OBJECT_ID": "1999-025WU", "EPOCH": "2025-12-21T13:18:54.872064", "MEAN_MOTION": 14.08789337, "ECCENTRICITY": 0.015372, "INCLINATION": 98.7488, "RA_OF_ASC_NODE": 13.4664, "ARG_OF_PERICENTER": 213.5255, "MEAN_ANOMALY": 279.7021, "EPHEMERIS_TYPE": 0, "CLASSIFICATION_TYPE": "U", "NORAD_CAT_ID": 30235, "ELEMENT_SET_NO": 999, "REV_AT_EPOCH": 97017, "BSTAR": 0.00020806, "MEAN_MOTION_DOT": 3.57e-06, "MEAN_MOTION_DDOT": 0}, "tle": {"line1": "1 30235U 99025WU  25355.55480176  .00000357  00000+0  20806-3 0  9997", "line2": "2 30235  98.7488  13.4664 0153720 213.5255 279.7021 14.08789337970176"}}, "geometry": {"type": "Point", "coordinates": [15.837724479967738, -6.590028169772026]}}, {"type": "Feature", "properties": {"norad_id": 30237, "name": "FENGYUN 1C DEB", "group": "fengyun-1c-debris", "lat": 26.3399875578428, "lon": 95.61228600956422, "alt_km": 758.2357713510937, "timestamp": "2025-12-22T22:44:21.250355+00:00", "meta": {"OBJECT_NAME": "FENGYUN 1C DEB", "OBJECT_ID": "1999-025WW", "EPOCH": "2025-12-22T06:12:07.642656", "MEAN_MOTION": 14.4101567, "ECCENTRICITY": 0.00147637, "INCLINATION": 98.8256, "RA_OF_ASC_NODE": 99.313, "ARG_OF_PERICENTER": 275.7658, "MEAN_ANOMALY": 138.3584, "EPHEMERIS_TYPE": 0, "CLASSIFICATION_TYPE": "U", "NORAD_CAT_ID": 30237, "ELEMENT_SET_NO": 999, "REV_AT_EPOCH": 97835, "BSTAR": 0.0023884849, "MEAN_MOTION_DOT": 7.65e-05, "MEAN_MOTION_DDOT": 0}, "tle": {"line1": "1 30237U 99025WW  25356.25842179  .00007650  00000+0  23885-2 0  9994", "line2": "2 30237  98.8256  99.3130 0014763 275.7658 138.3584 14.41015670978354"}}, "geometry": {"type": "Point", "coordinates": [95.61228600956422, 26.3399875578428]}}, {"type": "Feature", "properties": {"norad_id": 30239, "name": "FENGYUN 1C DEB", "group": "fengyun-1c-debris", "lat": -79.89028641550797, "lon": -108.99719883701786, "alt_km": 2132.356585412107, "timestamp": "2025-12-22T22:44:21.250365+00:00", "meta": {"OBJECT_NAME": "FENGYUN 1C DEB", "OBJECT_ID": "1999-025WY", "EPOCH": "2025-12-21T15:34:35.799744", "MEAN_MOTION": 11.38245043, "ECCENTRICITY": 0.1351203, "INCLINATION": 99.5672, "RA_OF_ASC_NODE": 141.1771, "ARG_OF_PERICENTER": 14.5155, "MEAN_ANOMALY": 349.0987, "EPHEMERIS_TYPE": 0, "CLASSIFICATION_TYPE": "U", "NORAD_CAT_ID": 30239, "ELEMENT_SET_NO": 999, "REV_AT_EPOCH": 54636, "BSTAR": 0.023977, "MEAN_MOTION_DOT": 8.124e-05, "MEAN_MOTION_DDOT": 0}, "tle": {"line1": "1 30239U 99025WY  25355.64902546  .00008124  00000+0  23977-1 0  9991", "line2": "2 30239  99.5672 141.1771 1351203  14.5155 349.0987 11.38245043546360"}}, "geometry": {"type": "Point", "coordinates": [-108.99719883701786, -79.89028641550797]}}, {"type": "Feature", "properties": {"norad_id": 30241, "name": "FENGYUN 1C DEB", "group": "fengyun-1c-debris", "lat": -61.96421479638672, "lon": -67.6208832790466, "alt_km": 972.3006783110231, "timestamp": "2025-12-22T22:44:21.250376+00:00", "meta": {"OBJECT_NAME": "FENGYUN 1C DEB", "OBJECT_ID": "1999-025XA", "EPOCH": "2025-12-22T08:12:49.281984", "MEAN_MOTION": 14.09556075, "ECCENTRICITY": 0.01466131, "INCLINATION": 99.1491, "RA_OF_ASC_NODE": 129.3799, "ARG_OF_PERICENTER": 54.4043, "MEAN_ANOMALY": 359.7428, "EPHEMERIS_TYPE": 0, "CLASSIFICATION_TYPE": "U", "NORAD_CAT_ID": 30241, "ELEMENT_SET_NO": 999, "REV_AT_EPOCH": 97047, "BSTAR": 0.00019319629, "MEAN_MOTION_DOT": 3.28e-06, "MEAN_MOTION_DDOT": 0}, "tle": {"line1": "1 30241U 99025XA  25356.34223706  .00000328  00000+0  19320-3 0  9993", "line2": "2 30241  99.1491 129.3799 0146613  54.4043 359.7428 14.09556075970473"}}, "geometry": {"type": "Point", "coordinates": [-67.6208832790466, -61.96421479638672]}}]}